{
  "links" : {
    "next" : "https://api.nasa.gov/neo/rest/v1/feed?start_date=2001-11-23&end_date=2001-11-23&detailed=true&api_key=t0TVs3DtDT2H8Oy2Zy8m2eVrNsAVKAexjcZXUckd",
    "prev" : "https://api.nasa.gov/neo/rest/v1/feed?start_date=2001-11-21&end_date=2001-11-21&detailed=true&api_key=t0TVs3DtDT2H8Oy2Zy8m2eVrNsAVKAexjcZXUckd",
    "self" : "https://api.nasa.gov/neo/rest/v1/feed?start_date=2001-11-22&end_date=2001-11-22&detailed=true&api_key=t0TVs3DtDT2H8Oy2Zy8m2eVrNsAVKAexjcZXUckd"
  },
  "element_count" : 4,
  "near_earth_objects" : {
    "2001-11-22" : [ {
      "links" : {
        "self" : "https://api.nasa.gov/neo/rest/v1/neo/3102686?api_key=t0TVs3DtDT2H8Oy2Zy8m2eVrNsAVKAexjcZXUckd"
      },
      "neo_reference_id" : "3102686",
      "name" : "(2001 XW10)",
      "nasa_jpl_url" : "http://ssd.jpl.nasa.gov/sbdb.cgi?sstr=3102686",
      "absolute_magnitude_h" : 19.4,
      "estimated_diameter" : {
        "kilometers" : {
          "estimated_diameter_min" : 0.3503926411,
          "estimated_diameter_max" : 0.7835017643
        },
        "meters" : {
          "estimated_diameter_min" : 350.3926411083,
          "estimated_diameter_max" : 783.5017643338
        },
        "miles" : {
          "estimated_diameter_min" : 0.2177238258,
          "estimated_diameter_max" : 0.4868452748
        },
        "feet" : {
          "estimated_diameter_min" : 1149.5821926537,
          "estimated_diameter_max" : 2570.543928497
        }
      },
      "is_potentially_hazardous_asteroid" : false,
      "close_approach_data" : [ {
        "close_approach_date" : "2001-11-22",
        "epoch_date_close_approach" : 1006416000000,
        "relative_velocity" : {
          "kilometers_per_second" : "18.4864891443",
          "kilometers_per_hour" : "66551.3609194274",
          "miles_per_hour" : "41352.427566852"
        },
        "miss_distance" : {
          "astronomical" : "0.2137486571",
          "lunar" : "83.1482315063",
          "kilometers" : "31976346",
          "miles" : "19869180"
        },
        "orbiting_body" : "Earth"
      } ],
      "orbital_data" : {
        "orbit_id" : "15",
        "orbit_determination_date" : "2017-04-06 09:15:45",
        "orbit_uncertainty" : "1",
        "minimum_orbit_intersection" : ".0782646",
        "jupiter_tisserand_invariant" : "3.286",
        "epoch_osculation" : "2458000.5",
        "eccentricity" : ".7684444225264772",
        "semi_major_axis" : "2.101835749721916",
        "inclination" : "4.651806602200566",
        "ascending_node_longitude" : "340.371629401822",
        "orbital_period" : "1113.003650500134",
        "perihelion_distance" : ".4866917907813531",
        "perihelion_argument" : "353.8374268478777",
        "aphelion_distance" : "3.716979708662479",
        "perihelion_time" : "2457769.580603320679",
        "mean_anomaly" : "74.69066500114361",
        "mean_motion" : ".3234490738985736",
        "equinox" : "J2000"
      }
    }, {
      "links" : {
        "self" : "https://api.nasa.gov/neo/rest/v1/neo/3604484?api_key=t0TVs3DtDT2H8Oy2Zy8m2eVrNsAVKAexjcZXUckd"
      },
      "neo_reference_id" : "3604484",
      "name" : "(2012 KO11)",
      "nasa_jpl_url" : "http://ssd.jpl.nasa.gov/sbdb.cgi?sstr=3604484",
      "absolute_magnitude_h" : 24.6,
      "estimated_diameter" : {
        "kilometers" : {
          "estimated_diameter_min" : 0.0319561887,
          "estimated_diameter_max" : 0.0714562102
        },
        "meters" : {
          "estimated_diameter_min" : 31.9561886721,
          "estimated_diameter_max" : 71.4562101727
        },
        "miles" : {
          "estimated_diameter_min" : 0.0198566489,
          "estimated_diameter_max" : 0.0444008168
        },
        "feet" : {
          "estimated_diameter_min" : 104.8431420431,
          "estimated_diameter_max" : 234.436392583
        }
      },
      "is_potentially_hazardous_asteroid" : false,
      "close_approach_data" : [ {
        "close_approach_date" : "2001-11-22",
        "epoch_date_close_approach" : 1006416000000,
        "relative_velocity" : {
          "kilometers_per_second" : "10.6337395545",
          "kilometers_per_hour" : "38281.4623961514",
          "miles_per_hour" : "23786.6120094309"
        },
        "miss_distance" : {
          "astronomical" : "0.0849828814",
          "lunar" : "33.05834198",
          "kilometers" : "12713258",
          "miles" : "7899652"
        },
        "orbiting_body" : "Earth"
      } ],
      "orbital_data" : {
        "orbit_id" : "7",
        "orbit_determination_date" : "2017-04-06 08:49:44",
        "orbit_uncertainty" : "7",
        "minimum_orbit_intersection" : ".0161957",
        "jupiter_tisserand_invariant" : "5.760",
        "epoch_osculation" : "2458000.5",
        "eccentricity" : ".1239956232745261",
        "semi_major_axis" : "1.062098622097263",
        "inclination" : "16.33854515359472",
        "ascending_node_longitude" : "59.12378875856642",
        "orbital_period" : "399.8026744646618",
        "perihelion_distance" : ".9304030414712973",
        "perihelion_argument" : "289.2228438889721",
        "aphelion_distance" : "1.193794202723228",
        "perihelion_time" : "2458172.696097392025",
        "mean_anomaly" : "204.9470225677335",
        "mean_motion" : ".9004442015853",
        "equinox" : "J2000"
      }
    }, {
      "links" : {
        "self" : "https://api.nasa.gov/neo/rest/v1/neo/3608936?api_key=t0TVs3DtDT2H8Oy2Zy8m2eVrNsAVKAexjcZXUckd"
      },
      "neo_reference_id" : "3608936",
      "name" : "(2012 SD22)",
      "nasa_jpl_url" : "http://ssd.jpl.nasa.gov/sbdb.cgi?sstr=3608936",
      "absolute_magnitude_h" : 20.1,
      "estimated_diameter" : {
        "kilometers" : {
          "estimated_diameter_min" : 0.2538370294,
          "estimated_diameter_max" : 0.5675968529
        },
        "meters" : {
          "estimated_diameter_min" : 253.8370293645,
          "estimated_diameter_max" : 567.5968528656
        },
        "miles" : {
          "estimated_diameter_min" : 0.1577269688,
          "estimated_diameter_max" : 0.3526882241
        },
        "feet" : {
          "estimated_diameter_min" : 832.7986794202,
          "estimated_diameter_max" : 1862.1944587557
        }
      },
      "is_potentially_hazardous_asteroid" : true,
      "close_approach_data" : [ {
        "close_approach_date" : "2001-11-22",
        "epoch_date_close_approach" : 1006416000000,
        "relative_velocity" : {
          "kilometers_per_second" : "10.4917310696",
          "kilometers_per_hour" : "37770.2318506248",
          "miles_per_hour" : "23468.9532296285"
        },
        "miss_distance" : {
          "astronomical" : "0.1620130605",
          "lunar" : "63.0230789185",
          "kilometers" : "24236808",
          "miles" : "15060054"
        },
        "orbiting_body" : "Earth"
      } ],
      "orbital_data" : {
        "orbit_id" : "26",
        "orbit_determination_date" : "2017-04-06 08:48:54",
        "orbit_uncertainty" : "0",
        "minimum_orbit_intersection" : ".0153549",
        "jupiter_tisserand_invariant" : "3.647",
        "epoch_osculation" : "2458000.5",
        "eccentricity" : ".5722897136644658",
        "semi_major_axis" : "1.964406312621457",
        "inclination" : "7.883956698325437",
        "ascending_node_longitude" : "140.4855051008781",
        "orbital_period" : "1005.646643623508",
        "perihelion_distance" : ".8401967864506545",
        "perihelion_argument" : "313.4240841041482",
        "aphelion_distance" : "3.08861583879226",
        "perihelion_time" : "2458293.581974609474",
        "mean_anomaly" : "255.0829185097833",
        "mean_motion" : ".3579786222950655",
        "equinox" : "J2000"
      }
    }, {
      "links" : {
        "self" : "https://api.nasa.gov/neo/rest/v1/neo/3781708?api_key=t0TVs3DtDT2H8Oy2Zy8m2eVrNsAVKAexjcZXUckd"
      },
      "neo_reference_id" : "3781708",
      "name" : "(2017 RO17)",
      "nasa_jpl_url" : "http://ssd.jpl.nasa.gov/sbdb.cgi?sstr=3781708",
      "absolute_magnitude_h" : 26.207,
      "estimated_diameter" : {
        "kilometers" : {
          "estimated_diameter_min" : 0.015245967,
          "estimated_diameter_max" : 0.0340910187
        },
        "meters" : {
          "estimated_diameter_min" : 15.2459670423,
          "estimated_diameter_max" : 34.0910186893
        },
        "miles" : {
          "estimated_diameter_min" : 0.0094734018,
          "estimated_diameter_max" : 0.0211831704
        },
        "feet" : {
          "estimated_diameter_min" : 50.0195785111,
          "estimated_diameter_max" : 111.8471777566
        }
      },
      "is_potentially_hazardous_asteroid" : false,
      "close_approach_data" : [ {
        "close_approach_date" : "2001-11-22",
        "epoch_date_close_approach" : 1006416000000,
        "relative_velocity" : {
          "kilometers_per_second" : "26.1041603113",
          "kilometers_per_hour" : "93974.9771207758",
          "miles_per_hour" : "58392.3962004065"
        },
        "miss_distance" : {
          "astronomical" : "0.4806570506",
          "lunar" : "186.9755859375",
          "kilometers" : "71905272",
          "miles" : "44679864"
        },
        "orbiting_body" : "Earth"
      } ],
      "orbital_data" : {
        "orbit_id" : "1",
        "orbit_determination_date" : "2017-09-25 13:12:02",
        "orbit_uncertainty" : "6",
        "minimum_orbit_intersection" : ".00784378",
        "jupiter_tisserand_invariant" : "6.733",
        "epoch_osculation" : "2458000.5",
        "eccentricity" : ".3810238639550345",
        "semi_major_axis" : ".8705862059135486",
        "inclination" : ".9523820604005262",
        "ascending_node_longitude" : "188.5216327797132",
        "orbital_period" : "296.6990114692509",
        "perihelion_distance" : ".538872085830415",
        "perihelion_argument" : "18.56662300011491",
        "aphelion_distance" : "1.202300325996682",
        "perihelion_time" : "2457922.087105269357",
        "mean_anomaly" : "95.14235306428355",
        "mean_motion" : "1.213350857548474",
        "equinox" : "J2000"
      }
    } ]
  }
}